[{"OBJECT_NAME":"STARLINK-34806","OBJECT_ID":"2025-165K","EPOCH":"2026-03-09T22:28:33.330432","MEAN_MOTION":15.05665154,"ECCENTRICITY":3.883e-5,"INCLINATION":97.602,"RA_OF_ASC_NODE":147.412,"ARG_OF_PERICENTER":127.2294,"MEAN_ANOMALY":232.8968,"EPHEMERIS_TYPE":0,"CLASSIFICATION_TYPE":"U","NORAD_CAT_ID":65065,"ELEMENT_SET_NO":999,"REV_AT_EPOCH":3482,"BSTAR":0.00069838759,"MEAN_MOTION_DOT":0.00010035,"MEAN_MOTION_DDOT":0},{"OBJECT_NAME":"COSMOS 252 DEB","OBJECT_ID":"1968-097R","EPOCH":"2026-03-09T21:14:17.625408","MEAN_MOTION":14.2586139,"ECCENTRICITY":0.04048142,"INCLINATION":62.2843,"RA_OF_ASC_NODE":299.467,"ARG_OF_PERICENTER":222.0036,"MEAN_ANOMALY":134.9322,"EPHEMERIS_TYPE":0,"CLASSIFICATION_TYPE":"U","NORAD_CAT_ID":3565,"ELEMENT_SET_NO":999,"REV_AT_EPOCH":82919,"BSTAR":0.00082009185,"MEAN_MOTION_DOT":4.523e-5,"MEAN_MOTION_DDOT":0}]
